CTC1_L_00203001-01
1 44753U 24527PR  26037.47803241  .00000000  00000+0  00000-0 0  9999
2 44753  95.0000   0.0000 0000000   0.0000   0.0000 13.56072426    16
CTC1_L_00203001-02
1 44754U 24921YN  26037.47803241  .00000000  00000+0  00000-0 0  9998
2 44754  95.0000   0.0000 0000000   0.0000  90.0000 13.56072426    16
CTC1_L_00203001-03
1 44755U 26546VX  26037.47803241  .00000000  00000+0  00000-0 0  9994
2 44755  95.0000   0.0000 0000000   0.0000 180.0000 13.56072426    17
CTC1_L_00203001-04
1 44756U 25152IP  26037.47803241  .00000000  00000+0  00000-0 0  9997
2 44756  95.0000   0.0000 0000000   0.0000 270.0000 13.56072426    18
CTC1_L_00203002-01
1 44757U 25196MR  26037.47803241  .00000000  00000+0  00000-0 0  9996
2 44757  95.0000  12.0000 0000000   0.0000  12.0000 13.56072426    16
CTC1_L_00203002-02
1 44758U 24546RR  26037.47803241  .00000000  00000+0  00000-0 0  9995
2 44758  95.0000  12.0000 0000000   0.0000 102.0000 13.56072426    17
CTC1_L_00203002-03
1 44759U 24556GJ  26037.47803241  .00000000  00000+0  00000-0 0  9997
2 44759  95.0000  12.0000 0000000   0.0000 192.0000 13.56072426    17
CTC1_L_00203002-04
1 44760U 23373SO  26037.47803241  .00000000  00000+0  00000-0 0  9995
2 44760  95.0000  12.0000 0000000   0.0000 282.0000 13.56072426    19
CTC1_L_00203003-01
1 44761U 26696GC  26037.47803241  .00000000  00000+0  00000-0 0  9997
2 44761  95.0000  24.0000 0000000   0.0000  24.0000 13.56072426    17
CTC1_L_00203003-02
1 44762U 23401IH  26037.47803241  .00000000  00000+0  00000-0 0  9999
2 44762  95.0000  24.0000 0000000   0.0000 114.0000 13.56072426    18
CTC1_L_00203003-03
1 44763U 24747OT  26037.47803241  .00000000  00000+0  00000-0 0  9994
2 44763  95.0000  24.0000 0000000   0.0000 204.0000 13.56072426    19
CTC1_L_00203003-04
1 44764U 26179GT  26037.47803241  .00000000  00000+0  00000-0 0  9996
2 44764  95.0000  24.0000 0000000   0.0000 294.0000 13.56072426    19
CTC1_L_00203004-01
1 44765U 23011LX  26037.47803241  .00000000  00000+0  00000-0 0  9999
2 44765  95.0000  36.0000 0000000   0.0000  36.0000 13.56072426    17
CTC1_L_00203004-02
1 44766U 25518EI  26037.47803241  .00000000  00000+0  00000-0 0  9994
2 44766  95.0000  36.0000 0000000   0.0000 126.0000 13.56072426    18
CTC1_L_00203004-03
1 44767U 26425LF  26037.47803241  .00000000  00000+0  00000-0 0  9993
2 44767  95.0000  36.0000 0000000   0.0000 216.0000 13.56072426    19
CTC1_L_00203004-04
1 44768U 26259J   26037.47803241  .00000000  00000+0  00000-0 0  9999
2 44768  95.0000  36.0000 0000000   0.0000 306.0000 13.56072426    10
CTC1_L_00203005-01
1 44769U 26683PQ  26037.47803241  .00000000  00000+0  00000-0 0  9991
2 44769  95.0000  48.0000 0000000   0.0000  48.0000 13.56072426    17
CTC1_L_00203005-02
1 44770U 24245TL  26037.47803241  .00000000  00000+0  00000-0 0  9995
2 44770  95.0000  48.0000 0000000   0.0000 138.0000 13.56072426    19
CTC1_L_00203005-03
1 44771U 22180WL  26037.47803241  .00000000  00000+0  00000-0 0  9992
2 44771  95.0000  48.0000 0000000   0.0000 228.0000 13.56072426    10
CTC1_L_00203005-04
1 44772U 22228ZT  26037.47803241  .00000000  00000+0  00000-0 0  9996
2 44772  95.0000  48.0000 0000000   0.0000 318.0000 13.56072426    11
CTC1_L_00203006-01
1 44773U 25843XH  26037.47803241  .00000000  00000+0  00000-0 0  9993
2 44773  95.0000  60.0000 0000000   0.0000  60.0000 13.56072426    10
CTC1_L_00203006-02
1 44774U 26140WF  26037.47803241  .00000000  00000+0  00000-0 0  9995
2 44774  95.0000  60.0000 0000000   0.0000 150.0000 13.56072426    11
CTC1_L_00203006-03
1 44775U 24354IJ  26037.47803241  .00000000  00000+0  00000-0 0  9991
2 44775  95.0000  60.0000 0000000   0.0000 240.0000 13.56072426    12
CTC1_L_00203006-04
1 44776U 23562JQ  26037.47803241  .00000000  00000+0  00000-0 0  9992
2 44776  95.0000  60.0000 0000000   0.0000 330.0000 13.56072426    13
CTC1_L_00203007-01
1 44777U 26408DM  26037.47803241  .00000000  00000+0  00000-0 0  9995
2 44777  95.0000  72.0000 0000000   0.0000  72.0000 13.56072426    10
CTC1_L_00203007-02
1 44778U 24373WM  26037.47803241  .00000000  00000+0  00000-0 0  9995
2 44778  95.0000  72.0000 0000000   0.0000 162.0000 13.56072426    11
CTC1_L_00203007-03
1 44779U 24246BK  26037.47803241  .00000000  00000+0  00000-0 0  9995
2 44779  95.0000  72.0000 0000000   0.0000 252.0000 13.56072426    12
CTC1_L_00203007-04
1 44780U 24344ZM  26037.47803241  .00000000  00000+0  00000-0 0  9996
2 44780  95.0000  72.0000 0000000   0.0000 342.0000 13.56072426    14
CTC1_L_00203008-01
1 44781U 26610II  26037.47803241  .00000000  00000+0  00000-0 0  9995
2 44781  95.0000  84.0000 0000000   0.0000  84.0000 13.56072426    11
CTC1_L_00203008-02
1 44782U 23328AY  26037.47803241  .00000000  00000+0  00000-0 0  9999
2 44782  95.0000  84.0000 0000000   0.0000 174.0000 13.56072426    12
CTC1_L_00203008-03
1 44783U 26620GR  26037.47803241  .00000000  00000+0  00000-0 0  9998
2 44783  95.0000  84.0000 0000000   0.0000 264.0000 13.56072426    13
CTC1_L_00203008-04
1 44784U 25156JS  26037.47803241  .00000000  00000+0  00000-0 0  9992
2 44784  95.0000  84.0000 0000000   0.0000 354.0000 13.56072426    14
CTC1_L_00203009-01
1 44785U 26216MB  26037.47803241  .00000000  00000+0  00000-0 0  9991
2 44785  95.0000  96.0000 0000000   0.0000  96.0000 13.56072426    11
CTC1_L_00203009-02
1 44786U 26916LW  26037.47803241  .00000000  00000+0  00000-0 0  9999
2 44786  95.0000  96.0000 0000000   0.0000 186.0000 13.56072426    12
CTC1_L_00203009-03
1 44787U 26360NW  26037.47803241  .00000000  00000+0  00000-0 0  9993
2 44787  95.0000  96.0000 0000000   0.0000 276.0000 13.56072426    13
CTC1_L_00203009-04
1 44788U 25350R   26037.47803241  .00000000  00000+0  00000-0 0  9992
2 44788  95.0000  96.0000 0000000   0.0000   6.0000 13.56072426    15
CTC1_L_00203010-01
1 44789U 23394TI  26037.47803241  .00000000  00000+0  00000-0 0  9999
2 44789  95.0000 108.0000 0000000   0.0000 108.0000 13.56072426    13
CTC1_L_00203010-02
1 44790U 25742FQ  26037.47803241  .00000000  00000+0  00000-0 0  9990
2 44790  95.0000 108.0000 0000000   0.0000 198.0000 13.56072426    14
CTC1_L_00203010-03
1 44791U 23701LF  26037.47803241  .00000000  00000+0  00000-0 0  9994
2 44791  95.0000 108.0000 0000000   0.0000 288.0000 13.56072426    15
CTC1_L_00203010-04
1 44792U 22791PR  26037.47803241  .00000000  00000+0  00000-0 0  9993
2 44792  95.0000 108.0000 0000000   0.0000  18.0000 13.56072426    17
CTC1_L_00203011-01
1 44793U 25934VK  26037.47803241  .00000000  00000+0  00000-0 0  9996
2 44793  95.0000 120.0000 0000000   0.0000 120.0000 13.56072426    16
CTC1_L_00203011-02
1 44794U 24391QB  26037.47803241  .00000000  00000+0  00000-0 0  9993
2 44794  95.0000 120.0000 0000000   0.0000 210.0000 13.56072426    17
CTC1_L_00203011-03
1 44795U 24147OI  26037.47803241  .00000000  00000+0  00000-0 0  9993
2 44795  95.0000 120.0000 0000000   0.0000 300.0000 13.56072426    18
CTC1_L_00203011-04
1 44796U 24754NC  26037.47803241  .00000000  00000+0  00000-0 0  9998
2 44796  95.0000 120.0000 0000000   0.0000  30.0000 13.56072426    19
CTC1_L_00203012-01
1 44797U 22287IF  26037.47803241  .00000000  00000+0  00000-0 0  9998
2 44797  95.0000 132.0000 0000000   0.0000 132.0000 13.56072426    16
CTC1_L_00203012-02
1 44798U 24719FS  26037.47803241  .00000000  00000+0  00000-0 0  9991
2 44798  95.0000 132.0000 0000000   0.0000 222.0000 13.56072426    17
CTC1_L_00203012-03
1 44799U 24182HZ  26037.47803241  .00000000  00000+0  00000-0 0  9996
2 44799  95.0000 132.0000 0000000   0.0000 312.0000 13.56072426    18
CTC1_L_00203012-04
1 44800U 23367ZB  26037.47803241  .00000000  00000+0  00000-0 0  9993
2 44800  95.0000 132.0000 0000000   0.0000  42.0000 13.56072426    11
CTC1_L_00203013-01
1 44801U 26685IW  26037.47803241  .00000000  00000+0  00000-0 0  9990
2 44801  95.0000 144.0000 0000000   0.0000 144.0000 13.56072426    18
CTC1_L_00203013-02
1 44802U 26293UF  26037.47803241  .00000000  00000+0  00000-0 0  9996
2 44802  95.0000 144.0000 0000000   0.0000 234.0000 13.56072426    19
CTC1_L_00203013-03
1 44803U 26232SL  26037.47803241  .00000000  00000+0  00000-0 0  9990
2 44803  95.0000 144.0000 0000000   0.0000 324.0000 13.56072426    10
CTC1_L_00203013-04
1 44804U 22783YU  26037.47803241  .00000000  00000+0  00000-0 0  9998
2 44804  95.0000 144.0000 0000000   0.0000  54.0000 13.56072426    11
CTC1_L_00203014-01
1 44805U 23742WK  26037.47803241  .00000000  00000+0  00000-0 0  9995
2 44805  95.0000 156.0000 0000000   0.0000 156.0000 13.56072426    18
CTC1_L_00203014-02
1 44806U 25356VY  26037.47803241  .00000000  00000+0  00000-0 0  9999
2 44806  95.0000 156.0000 0000000   0.0000 246.0000 13.56072426    19
CTC1_L_00203014-03
1 44807U 24051PG  26037.47803241  .00000000  00000+0  00000-0 0  9991
2 44807  95.0000 156.0000 0000000   0.0000 336.0000 13.56072426    10
CTC1_L_00203014-04
1 44808U 22774YZ  26037.47803241  .00000000  00000+0  00000-0 0  9992
2 44808  95.0000 156.0000 0000000   0.0000  66.0000 13.56072426    11
CTC1_L_00203015-01
1 44809U 26840IA  26037.47803241  .00000000  00000+0  00000-0 0  9991
2 44809  95.0000 168.0000 0000000   0.0000 168.0000 13.56072426    18
CTC1_L_00203015-02
1 44810U 23569IQ  26037.47803241  .00000000  00000+0  00000-0 0  9998
2 44810  95.0000 168.0000 0000000   0.0000 258.0000 13.56072426    10
CTC1_L_00203015-03
1 44811U 25809OF  26037.47803241  .00000000  00000+0  00000-0 0  9998
2 44811  95.0000 168.0000 0000000   0.0000 348.0000 13.56072426    11
CTC1_L_00203015-04
1 44812U 23325HO  26037.47803241  .00000000  00000+0  00000-0 0  9990
2 44812  95.0000 168.0000 0000000   0.0000  78.0000 13.56072426    12
CTC1_L_00203016-01
1 44813U 24778HB  26037.47803241  .00000000  00000+0  00000-0 0  9994
2 44813  95.0000 180.0000 0000000   0.0000 180.0000 13.56072426    11
CTC1_L_00203016-02
1 44814U 24684UT  26037.47803241  .00000000  00000+0  00000-0 0  9991
2 44814  95.0000 180.0000 0000000   0.0000 270.0000 13.56072426    12
